[
  {
    "CCSDS_OMM_VERS": "3.0",
    "COMMENT": "GENERATED VIA SPACE-TRACK.ORG API",
    "CREATION_DATE": "2026-02-19T17:59:09",
    "ORIGINATOR": "18 SPCS",
    "OBJECT_NAME": "DELTA 1 DEB",
    "OBJECT_ID": "1975-052GL",
    "CENTER_NAME": "EARTH",
    "REF_FRAME": "TEME",
    "TIME_SYSTEM": "UTC",
    "MEAN_ELEMENT_THEORY": "SGP4",
    "EPOCH": "2026-02-19T15:19:48.259200",
    "MEAN_MOTION": "12.98721801",
    "ECCENTRICITY": "0.02746364",
    "INCLINATION": "99.7137",
    "RA_OF_ASC_NODE": "113.0386",
    "ARG_OF_PERICENTER": "140.0983",
    "MEAN_ANOMALY": "12.8709",
    "EPHEMERIS_TYPE": "0",
    "CLASSIFICATION_TYPE": "U",
    "NORAD_CAT_ID": "21515",
    "ELEMENT_SET_NO": "999",
    "REV_AT_EPOCH": "64742",
    "BSTAR": "0.00062472346000",
    "MEAN_MOTION_DOT": "0.00000184",
    "MEAN_MOTION_DDOT": "0.0000000000000",
    "SEMIMAJOR_AXIS": "7645.239",
    "PERIOD": "110.878",
    "APOAPSIS": "1477.070",
    "PERIAPSIS": "1057.138",
    "OBJECT_TYPE": "DEBRIS",
    "RCS_SIZE": "SMALL",
    "COUNTRY_CODE": "US",
    "LAUNCH_DATE": "1975-06-12",
    "SITE": "AFWTR",
    "DECAY_DATE": null,
    "FILE": "5039972",
    "GP_ID": "313160680",
    "TLE_LINE0": "0 DELTA 1 DEB",
    "TLE_LINE1": "1 21515U 75052GL  26050.63875300  .00000184  00000-0  62472-3 0  9995",
    "TLE_LINE2": "2 21515  99.7137 113.0386 0274636 140.0983  12.8709 12.98721801647426"
  },
  {
    "CCSDS_OMM_VERS": "3.0",
    "COMMENT": "GENERATED VIA SPACE-TRACK.ORG API",
    "CREATION_DATE": "2026-02-19T17:59:09",
    "ORIGINATOR": "18 SPCS",
    "OBJECT_NAME": "COSMOS 1275 DEB",
    "OBJECT_ID": "1981-053ND",
    "CENTER_NAME": "EARTH",
    "REF_FRAME": "TEME",
    "TIME_SYSTEM": "UTC",
    "MEAN_ELEMENT_THEORY": "SGP4",
    "EPOCH": "2026-02-19T15:19:20.378784",
    "MEAN_MOTION": "13.62260715",
    "ECCENTRICITY": "0.01500383",
    "INCLINATION": "83.0629",
    "RA_OF_ASC_NODE": "287.0109",
    "ARG_OF_PERICENTER": "351.6263",
    "MEAN_ANOMALY": "38.5661",
    "EPHEMERIS_TYPE": "0",
    "CLASSIFICATION_TYPE": "U",
    "NORAD_CAT_ID": "39943",
    "ELEMENT_SET_NO": "999",
    "REV_AT_EPOCH": "57990",
    "BSTAR": "0.00115947170000",
    "MEAN_MOTION_DOT": "0.00000981",
    "MEAN_MOTION_DDOT": "0.0000000000000",
    "SEMIMAJOR_AXIS": "7405.624",
    "PERIOD": "105.707",
    "APOAPSIS": "1138.602",
    "PERIAPSIS": "916.377",
    "OBJECT_TYPE": "DEBRIS",
    "RCS_SIZE": "SMALL",
    "COUNTRY_CODE": "CIS",
    "LAUNCH_DATE": "1981-06-04",
    "SITE": "PKMTR",
    "DECAY_DATE": null,
    "FILE": "5039972",
    "GP_ID": "313169184",
    "TLE_LINE0": "0 COSMOS 1275 DEB",
    "TLE_LINE1": "1 39943U 81053ND  26050.63843031  .00000981  00000-0  11595-2 0  9997",
    "TLE_LINE2": "2 39943  83.0629 287.0109 0150038 351.6263  38.5661 13.62260715579900"
  },
  {
    "CCSDS_OMM_VERS": "3.0",
    "COMMENT": "GENERATED VIA SPACE-TRACK.ORG API",
    "CREATION_DATE": "2026-02-19T17:59:09",
    "ORIGINATOR": "18 SPCS",
    "OBJECT_NAME": "SL-16 DEB",
    "OBJECT_ID": "1992-093AX",
    "CENTER_NAME": "EARTH",
    "REF_FRAME": "TEME",
    "TIME_SYSTEM": "UTC",
    "MEAN_ELEMENT_THEORY": "SGP4",
    "EPOCH": "2026-02-19T15:19:20.224128",
    "MEAN_MOTION": "13.84946707",
    "ECCENTRICITY": "0.01464588",
    "INCLINATION": "71.2275",
    "RA_OF_ASC_NODE": "110.7445",
    "ARG_OF_PERICENTER": "190.0688",
    "MEAN_ANOMALY": "333.4230",
    "EPHEMERIS_TYPE": "0",
    "CLASSIFICATION_TYPE": "U",
    "NORAD_CAT_ID": "22358",
    "ELEMENT_SET_NO": "999",
    "REV_AT_EPOCH": "67456",
    "BSTAR": "0.00009199061400",
    "MEAN_MOTION_DOT": "0.00000071",
    "MEAN_MOTION_DDOT": "0.0000000000000",
    "SEMIMAJOR_AXIS": "7324.531",
    "PERIOD": "103.975",
    "APOAPSIS": "1053.670",
    "PERIAPSIS": "839.121",
    "OBJECT_TYPE": "DEBRIS",
    "RCS_SIZE": "MEDIUM",
    "COUNTRY_CODE": "CIS",
    "LAUNCH_DATE": "1992-12-25",
    "SITE": "TTMTR",
    "DECAY_DATE": null,
    "FILE": "5039972",
    "GP_ID": "313161336",
    "TLE_LINE0": "0 SL-16 DEB",
    "TLE_LINE1": "1 22358U 92093AX  26050.63842852  .00000071  00000-0  91991-4 0  9995",
    "TLE_LINE2": "2 22358  71.2275 110.7445 0146459 190.0688 333.4230 13.84946707674564"
  },
  {
    "CCSDS_OMM_VERS": "3.0",
    "COMMENT": "GENERATED VIA SPACE-TRACK.ORG API",
    "CREATION_DATE": "2026-02-19T17:59:09",
    "ORIGINATOR": "18 SPCS",
    "OBJECT_NAME": "SL-14 DEB",
    "OBJECT_ID": "1987-068BX",
    "CENTER_NAME": "EARTH",
    "REF_FRAME": "TEME",
    "TIME_SYSTEM": "UTC",
    "MEAN_ELEMENT_THEORY": "SGP4",
    "EPOCH": "2026-02-19T15:19:07.108608",
    "MEAN_MOTION": "13.96936419",
    "ECCENTRICITY": "0.00188247",
    "INCLINATION": "82.5551",
    "RA_OF_ASC_NODE": "293.5546",
    "ARG_OF_PERICENTER": "16.8557",
    "MEAN_ANOMALY": "14.3255",
    "EPHEMERIS_TYPE": "0",
    "CLASSIFICATION_TYPE": "U",
    "NORAD_CAT_ID": "25444",
    "ELEMENT_SET_NO": "999",
    "REV_AT_EPOCH": "40988",
    "BSTAR": "0.00045191385000",
    "MEAN_MOTION_DOT": "0.00000645",
    "MEAN_MOTION_DDOT": "0.0000000000000",
    "SEMIMAJOR_AXIS": "7282.560",
    "PERIOD": "103.083",
    "APOAPSIS": "918.134",
    "PERIAPSIS": "890.716",
    "OBJECT_TYPE": "DEBRIS",
    "RCS_SIZE": "SMALL",
    "COUNTRY_CODE": "CIS",
    "LAUNCH_DATE": "1987-08-18",
    "SITE": "PKMTR",
    "DECAY_DATE": null,
    "FILE": "5039972",
    "GP_ID": "313161796",
    "TLE_LINE0": "0 SL-14 DEB",
    "TLE_LINE1": "1 25444U 87068BX  26050.63827672  .00000645  00000-0  45191-3 0  9990",
    "TLE_LINE2": "2 25444  82.5551 293.5546 0018825  16.8557  14.3255 13.96936419409887"
  },
  {
    "CCSDS_OMM_VERS": "3.0",
    "COMMENT": "GENERATED VIA SPACE-TRACK.ORG API",
    "CREATION_DATE": "2026-02-19T17:59:09",
    "ORIGINATOR": "18 SPCS",
    "OBJECT_NAME": "COSMOS 1375 DEB",
    "OBJECT_ID": "1982-055K",
    "CENTER_NAME": "EARTH",
    "REF_FRAME": "TEME",
    "TIME_SYSTEM": "UTC",
    "MEAN_ELEMENT_THEORY": "SGP4",
    "EPOCH": "2026-02-19T15:19:04.525248",
    "MEAN_MOTION": "13.76178367",
    "ECCENTRICITY": "0.00526272",
    "INCLINATION": "65.8332",
    "RA_OF_ASC_NODE": "276.8661",
    "ARG_OF_PERICENTER": "288.5749",
    "MEAN_ANOMALY": "103.3609",
    "EPHEMERIS_TYPE": "0",
    "CLASSIFICATION_TYPE": "U",
    "NORAD_CAT_ID": "16208",
    "ELEMENT_SET_NO": "999",
    "REV_AT_EPOCH": "2601",
    "BSTAR": "0.00004636486600",
    "MEAN_MOTION_DOT": "-0.00000035",
    "MEAN_MOTION_DDOT": "0.0000000000000",
    "SEMIMAJOR_AXIS": "7355.610",
    "PERIOD": "104.638",
    "APOAPSIS": "1016.185",
    "PERIAPSIS": "938.764",
    "OBJECT_TYPE": "DEBRIS",
    "RCS_SIZE": "MEDIUM",
    "COUNTRY_CODE": "CIS",
    "LAUNCH_DATE": "1982-06-06",
    "SITE": "PKMTR",
    "DECAY_DATE": null,
    "FILE": "5039972",
    "GP_ID": "313159451",
    "TLE_LINE0": "0 COSMOS 1375 DEB",
    "TLE_LINE1": "1 16208U 82055K   26050.63824682 -.00000035  00000-0  46365-4 0  9996",
    "TLE_LINE2": "2 16208  65.8332 276.8661 0052627 288.5749 103.3609 13.76178367 26017"
  },
  {
    "CCSDS_OMM_VERS": "3.0",
    "COMMENT": "GENERATED VIA SPACE-TRACK.ORG API",
    "CREATION_DATE": "2026-02-19T17:59:09",
    "ORIGINATOR": "18 SPCS",
    "OBJECT_NAME": "COSMOS 839 DEB",
    "OBJECT_ID": "1976-067AP",
    "CENTER_NAME": "EARTH",
    "REF_FRAME": "TEME",
    "TIME_SYSTEM": "UTC",
    "MEAN_ELEMENT_THEORY": "SGP4",
    "EPOCH": "2026-02-19T15:19:03.839232",
    "MEAN_MOTION": "12.60544120",
    "ECCENTRICITY": "0.06590414",
    "INCLINATION": "65.9973",
    "RA_OF_ASC_NODE": "282.4916",
    "ARG_OF_PERICENTER": "40.0144",
    "MEAN_ANOMALY": "352.0564",
    "EPHEMERIS_TYPE": "0",
    "CLASSIFICATION_TYPE": "U",
    "NORAD_CAT_ID": "10615",
    "ELEMENT_SET_NO": "999",
    "REV_AT_EPOCH": "54365",
    "BSTAR": "0.00243870720000",
    "MEAN_MOTION_DOT": "0.00000925",
    "MEAN_MOTION_DDOT": "0.0000000000000",
    "SEMIMAJOR_AXIS": "7798.836",
    "PERIOD": "114.236",
    "APOAPSIS": "1934.677",
    "PERIAPSIS": "906.726",
    "OBJECT_TYPE": "DEBRIS",
    "RCS_SIZE": "SMALL",
    "COUNTRY_CODE": "CIS",
    "LAUNCH_DATE": "1976-07-08",
    "SITE": "PKMTR",
    "DECAY_DATE": null,
    "FILE": "5039972",
    "GP_ID": "313157679",
    "TLE_LINE0": "0 COSMOS 839 DEB",
    "TLE_LINE1": "1 10615U 76067AP  26050.63823888  .00000925  00000-0  24387-2 0  9990",
    "TLE_LINE2": "2 10615  65.9973 282.4916 0659041  40.0144 352.0564 12.60544120543657"
  },
  {
    "CCSDS_OMM_VERS": "3.0",
    "COMMENT": "GENERATED VIA SPACE-TRACK.ORG API",
    "CREATION_DATE": "2026-02-19T17:59:09",
    "ORIGINATOR": "18 SPCS",
    "OBJECT_NAME": "CZ-6A DEB",
    "OBJECT_ID": "2024-140NR",
    "CENTER_NAME": "EARTH",
    "REF_FRAME": "TEME",
    "TIME_SYSTEM": "UTC",
    "MEAN_ELEMENT_THEORY": "SGP4",
    "EPOCH": "2026-02-19T15:18:32.194368",
    "MEAN_MOTION": "14.27933692",
    "ECCENTRICITY": "0.00303328",
    "INCLINATION": "89.0081",
    "RA_OF_ASC_NODE": "288.0472",
    "ARG_OF_PERICENTER": "168.3204",
    "MEAN_ANOMALY": "191.8701",
    "EPHEMERIS_TYPE": "0",
    "CLASSIFICATION_TYPE": "U",
    "NORAD_CAT_ID": "61099",
    "ELEMENT_SET_NO": "999",
    "REV_AT_EPOCH": "7698",
    "BSTAR": "0.00102569130000",
    "MEAN_MOTION_DOT": "0.00002566",
    "MEAN_MOTION_DDOT": "0.0000000000000",
    "SEMIMAJOR_AXIS": "7176.783",
    "PERIOD": "100.845",
    "APOAPSIS": "820.417",
    "PERIAPSIS": "776.879",
    "OBJECT_TYPE": "DEBRIS",
    "RCS_SIZE": "SMALL",
    "COUNTRY_CODE": "PRC",
    "LAUNCH_DATE": "2024-08-06",
    "SITE": "TSC",
    "DECAY_DATE": null,
    "FILE": "5039972",
    "GP_ID": "313181413",
    "TLE_LINE0": "0 CZ-6A DEB",
    "TLE_LINE1": "1 61099U 24140NR  26050.63787262  .00002566  00000-0  10257-2 0  9996",
    "TLE_LINE2": "2 61099  89.0081 288.0472 0030333 168.3204 191.8701 14.27933692 76983"
  }
]